[{"OBJECT_ID":"1979-101Q","OBJECT_NAME":"SATCOM 3 DEB","NORAD_CAT_ID":"32989","OBJECT_TYPE":"DEBRIS","PERIOD":"775.445","INCLINATION":"8.2439","ECCENTRICITY":"0.47794760","MEAN_MOTION":"1.85699773","TLE_LINE1":"1 32989U 79101Q   21269.65563726 -.00000086  00000-0  00000-0 0  9994","TLE_LINE2":"2 32989   8.2439 226.7137 4779476 196.2922  10.2954  1.85699773 92874"},{"OBJECT_ID":"1979-101S","OBJECT_NAME":"SATCOM 3 DEB","NORAD_CAT_ID":"32991","OBJECT_TYPE":"DEBRIS","PERIOD":"798.874","INCLINATION":"10.5303","ECCENTRICITY":"0.46769350","MEAN_MOTION":"1.80253734","TLE_LINE1":"1 32991U 79101S   21270.64280413 -.00000135  00000-0  00000-0 0  9992","TLE_LINE2":"2 32991  10.5303 343.8409 4676935 326.5789  36.9688  1.80253734 91822"},{"OBJECT_ID":"1979-101T","OBJECT_NAME":"SATCOM 3 DEB *","NORAD_CAT_ID":"32992","OBJECT_TYPE":"DEBRIS","PERIOD":"807.868","INCLINATION":"13.2377","ECCENTRICITY":"0.46435270","MEAN_MOTION":"1.78246980","TLE_LINE1":"1 32992U 79101T   21271.52489698 -.00000133  00000-0  00000+0 0  9994","TLE_LINE2":"2 32992  13.2377  47.3783 4643527 163.2265 297.0936  1.78246980 92022"},{"OBJECT_ID":"1979-101U","OBJECT_NAME":"SATCOM 3 DEB","NORAD_CAT_ID":"32993","OBJECT_TYPE":"DEBRIS","PERIOD":"793.854","INCLINATION":"9.6279","ECCENTRICITY":"0.44974500","MEAN_MOTION":"1.81393508","TLE_LINE1":"1 32993U 79101U   21270.59924704 -.00000157  00000-0  00000+0 0  9999","TLE_LINE2":"2 32993   9.6279 332.8846 4497450 356.7576  59.6474  1.81393508 97499"},{"OBJECT_ID":"1991-075P","OBJECT_NAME":"ARIANE 44L DEB","NORAD_CAT_ID":"32998","OBJECT_TYPE":"DEBRIS","PERIOD":"500.907","INCLINATION":"5.7343","ECCENTRICITY":"0.66567510","MEAN_MOTION":"2.87478342","TLE_LINE1":"1 32998U 91075P   21272.35599519  .00000044  00000-0  19998-2 0  9999","TLE_LINE2":"2 32998   5.7343 244.8573 6656751 301.9725  54.3707  2.87478342196255"},{"OBJECT_ID":"1992-021T","OBJECT_NAME":"ARIANE 44L+ DEB","NORAD_CAT_ID":"32999","OBJECT_TYPE":"DEBRIS","PERIOD":"641.021","INCLINATION":"3.2097","ECCENTRICITY":"0.70289330","MEAN_MOTION":"2.24641532","TLE_LINE1":"1 32999U 92021T   21270.79471420  .00000008  00000-0  25892-2 0  9998","TLE_LINE2":"2 32999   3.2097 201.5908 7028933  89.2563  38.6674  2.24641532155672"},{"OBJECT_ID":"1978-012D","OBJECT_NAME":"IUE DEB","NORAD_CAT_ID":"33000","OBJECT_TYPE":"DEBRIS","PERIOD":"1434.546","INCLINATION":"39.7672","ECCENTRICITY":"0.21168500","MEAN_MOTION":"1.00380170","TLE_LINE1":"1 33000U 78012D   21248.45770057 -.00000182  00000-0  00000-0 0  9998","TLE_LINE2":"2 33000  39.7672 305.8085 2116850 252.3252  93.9719  1.00380170 25246"},{"OBJECT_ID":"2008-034C","OBJECT_NAME":"ARIANE 5 DEB (SYLDA)","NORAD_CAT_ID":"33155","OBJECT_TYPE":"DEBRIS","PERIOD":"413.661","INCLINATION":"1.6643","ECCENTRICITY":"0.63907580","MEAN_MOTION":"3.48111060","TLE_LINE1":"1 33155U 08034C   21271.87513706  .00019832  00000-0  33905-2 0  9997","TLE_LINE2":"2 33155   1.6643 311.9593 6390758  74.4775 343.7110  3.48111060138614"},{"OBJECT_ID":"2008-038D","OBJECT_NAME":"ARIANE 5 DEB (SYLDA)","NORAD_CAT_ID":"33277","OBJECT_TYPE":"DEBRIS","PERIOD":"328.253","INCLINATION":"2.5179","ECCENTRICITY":"0.57029470","MEAN_MOTION":"4.38686211","TLE_LINE1":"1 33277U 08038D   21271.47370616  .00001049  00000-0  86207-3 0  9998","TLE_LINE2":"2 33277   2.5179 345.6240 5702947  44.0785 349.2654  4.38686211166863"},{"OBJECT_ID":"2008-039B","OBJECT_NAME":"BREEZE-M DEB (TANK)","NORAD_CAT_ID":"33279","OBJECT_TYPE":"DEBRIS","PERIOD":"251.814","INCLINATION":"45.9446","ECCENTRICITY":"0.48368660","MEAN_MOTION":"5.71850390","TLE_LINE1":"1 33279U 08039B   21272.06072945  .00000027  00000-0  98968-4 0  9994","TLE_LINE2":"2 33279  45.9446 183.6768 4836866 168.1436 209.5469  5.71850390272584"},{"OBJECT_ID":"2008-044B","OBJECT_NAME":"BREEZE-M DEB (TANK)","NORAD_CAT_ID":"33374","OBJECT_TYPE":"DEBRIS","PERIOD":"294.817","INCLINATION":"49.4880","ECCENTRICITY":"0.54213430","MEAN_MOTION":"4.88437805","TLE_LINE1":"1 33374U 08044B   21271.29051585  .00001161  00000-0  40985-3 0  9992","TLE_LINE2":"2 33374  49.4880 263.4603 5421343 305.3626  15.2164  4.88437805230333"},{"OBJECT_ID":"2008-057B","OBJECT_NAME":"BREEZE-M DEB (TANK)","NORAD_CAT_ID":"33437","OBJECT_TYPE":"DEBRIS","PERIOD":"255.959","INCLINATION":"49.5810","ECCENTRICITY":"0.49701000","MEAN_MOTION":"5.62589286","TLE_LINE1":"1 33437U 08057B   21271.38010103  .00000806  00000-0  27850-3 0  9998","TLE_LINE2":"2 33437  49.5810 342.9532 4970100 136.8240 275.2428  5.62589286261697"},{"OBJECT_ID":"2008-063B","OBJECT_NAME":"BREEZE-M DEB (TANK)","NORAD_CAT_ID":"33454","OBJECT_TYPE":"DEBRIS","PERIOD":"292.258","INCLINATION":"49.4611","ECCENTRICITY":"0.54239620","MEAN_MOTION":"4.92715929","TLE_LINE1":"1 33454U 08063B   21271.99619228  .00002540  00000-0  46617-3 0  9993","TLE_LINE2":"2 33454  49.4611 251.1547 5423962 280.8823  25.1989  4.92715929227130"},{"OBJECT_ID":"2006-053D","OBJECT_NAME":"FENGYUN 2D DEB","NORAD_CAT_ID":"33458","OBJECT_TYPE":"DEBRIS","PERIOD":"1436.467","INCLINATION":"8.5822","ECCENTRICITY":"0.00445530","MEAN_MOTION":"1.00245945","TLE_LINE1":"1 33458U 06053D   21270.92719854 -.00000108  00000-0  00000-0 0  9994","TLE_LINE2":"2 33458   8.5822  49.3942 0044553  12.9392 355.2236  1.00245945 48118"},{"OBJECT_ID":"2008-065C","OBJECT_NAME":"ARIANE 5 DEB (SYLDA)","NORAD_CAT_ID":"33461","OBJECT_TYPE":"DEBRIS","PERIOD":"403.996","INCLINATION":"4.4822","ECCENTRICITY":"0.63291440","MEAN_MOTION":"3.56438770","TLE_LINE1":"1 33461U 08065C   21271.28054976  .00033453  00000-0  63579-2 0  9990","TLE_LINE2":"2 33461   4.4822  68.4313 6329144 136.0447 296.9255  3.56438770139057"},{"OBJECT_ID":"1968-081K","OBJECT_NAME":"TITAN 3C TRANSTAGE DEB","NORAD_CAT_ID":"33509","OBJECT_TYPE":"DEBRIS","PERIOD":"1410.579","INCLINATION":"2.7024","ECCENTRICITY":"0.00477600","MEAN_MOTION":"1.02085754","TLE_LINE1":"1 33509U 68081K   21271.97738963 -.00000248  00000-0  00000+0 0  9992","TLE_LINE2":"2 33509   2.7024 303.2060 0047760  92.5703  50.2612  1.02085754 62164"},{"OBJECT_ID":"1968-081L","OBJECT_NAME":"TITAN 3C TRANSTAGE DEB","NORAD_CAT_ID":"33510","OBJECT_TYPE":"DEBRIS","PERIOD":"1413.951","INCLINATION":"2.5986","ECCENTRICITY":"0.00625590","MEAN_MOTION":"1.01842311","TLE_LINE1":"1 33510U 68081L   21271.19218986 -.00000034  00000-0  00000-0 0  9990","TLE_LINE2":"2 33510   2.5986 305.8465 0062559  15.0283  80.7428  1.01842311 32107"},{"OBJECT_ID":"1968-081M","OBJECT_NAME":"TITAN 3C TRANSTAGE DEB","NORAD_CAT_ID":"33511","OBJECT_TYPE":"DEBRIS","PERIOD":"1429.023","INCLINATION":"3.2632","ECCENTRICITY":"0.01226560","MEAN_MOTION":"1.00768112","TLE_LINE1":"1 33511U 68081M   21271.56863844  .00000064  00000-0  00000-0 0  9993","TLE_LINE2":"2 33511   3.2632 307.6776 0122656   3.4364  88.2270  1.00768112 50063"},{"OBJECT_ID":"1968-081N","OBJECT_NAME":"TITAN 3C TRANSTAGE DEB","NORAD_CAT_ID":"33512","OBJECT_TYPE":"DEBRIS","PERIOD":"1426.966","INCLINATION":"2.9210","ECCENTRICITY":"0.01708930","MEAN_MOTION":"1.00913402","TLE_LINE1":"1 33512U 68081N   21270.80198957  .00000073  00000-0  00000+0 0  9995","TLE_LINE2":"2 33512   2.9210 309.9872 0170893 347.2143  12.0789  1.00913402 56233"},{"OBJECT_ID":"1968-081P","OBJECT_NAME":"TITAN 3C TRANSTAGE DEB","NORAD_CAT_ID":"33513","OBJECT_TYPE":"DEBRIS","PERIOD":"1420.232","INCLINATION":"2.7089","ECCENTRICITY":"0.00898390","MEAN_MOTION":"1.01391878","TLE_LINE1":"1 33513U 68081P   21271.84535727  .00000098  00000-0  00000+0 0  9998","TLE_LINE2":"2 33513   2.7089 307.9195 0089839 357.9038   8.1030  1.01391878 51702"},{"OBJECT_ID":"1981-071Z","OBJECT_NAME":"COSMOS 1285 DEB","NORAD_CAT_ID":"33524","OBJECT_TYPE":"DEBRIS","PERIOD":"726.105","INCLINATION":"68.8644","ECCENTRICITY":"0.62812740","MEAN_MOTION":"1.98318431","TLE_LINE1":"1 33524U 81071Z   21271.47683734 -.00000582  00000-0  00000+0 0  9994","TLE_LINE2":"2 33524  68.8644 179.4351 6281274  22.9995 316.4687  1.98318431741556"},{"OBJECT_ID":"1988-040G","OBJECT_NAME":"ARIANE 2 DEB","NORAD_CAT_ID":"33533","OBJECT_TYPE":"DEBRIS","PERIOD":"620.871","INCLINATION":"7.6265","ECCENTRICITY":"0.71488620","MEAN_MOTION":"2.31932311","TLE_LINE1":"1 33533U 88040G   21271.44350080 -.00000356  00000-0 -12661-2 0  9998","TLE_LINE2":"2 33533   7.6265 316.3966 7148862 188.5112 351.9861  2.31932311143434"},{"OBJECT_ID":"1988-040H","OBJECT_NAME":"ARIANE 2 DEB","NORAD_CAT_ID":"33534","OBJECT_TYPE":"DEBRIS","PERIOD":"623.162","INCLINATION":"7.4151","ECCENTRICITY":"0.71720020","MEAN_MOTION":"2.31079600","TLE_LINE1":"1 33534U 88040H   21272.35411845  .00000105  00000-0  14481-2 0  9999","TLE_LINE2":"2 33534   7.4151 281.2206 7172002 257.6938  20.2797  2.31079600142257"},{"OBJECT_ID":"1988-040J","OBJECT_NAME":"ARIANE 2 DEB","NORAD_CAT_ID":"33535","OBJECT_TYPE":"DEBRIS","PERIOD":"611.934","INCLINATION":"7.6246","ECCENTRICITY":"0.71242550","MEAN_MOTION":"2.35319589","TLE_LINE1":"1 33535U 88040J   21271.08397985  .00000471  00000-0  38239-2 0  9990","TLE_LINE2":"2 33535   7.6246 270.7632 7124255 275.2780  14.0702  2.35319589131105"},{"OBJECT_ID":"1988-081L","OBJECT_NAME":"ARIANE 3 DEB","NORAD_CAT_ID":"33536","OBJECT_TYPE":"DEBRIS","PERIOD":"667.708","INCLINATION":"6.4945","ECCENTRICITY":"0.69540860","MEAN_MOTION":"2.15663068","TLE_LINE1":"1 33536U 88081L   21271.49631872  .00000003  00000-0  00000-0 0  9991","TLE_LINE2":"2 33536   6.4945  75.4853 6954086 202.1843  44.8478  2.15663068136361"},{"OBJECT_ID":"1988-081M","OBJECT_NAME":"ARIANE 3 DEB","NORAD_CAT_ID":"33537","OBJECT_TYPE":"DEBRIS","PERIOD":"664.005","INCLINATION":"6.9455","ECCENTRICITY":"0.69970000","MEAN_MOTION":"2.16865905","TLE_LINE1":"1 33537U 88081M   21272.32748247 -.00000083  00000-0  00000+0 0  9998","TLE_LINE2":"2 33537   6.9455 290.5590 6997000 129.0900 293.2561  2.16865905126733"}]